SKYSAT-C7               
1 42991U 17068E   26068.90185345  .00013840  00000+0  41294-3 0  9992
2 42991  97.4366 205.4362 0007376 103.1891 257.0175 15.34728444467130
KUIPER-00275            
1 67793U 26030AF  26068.71162338  .00032535  00000+0  95700-3 0  9997
2 67793  51.8837 219.2226 0009337  52.8442 307.3396 15.34756533  5094
